H1 CPF 01  gfz 2021 09 15 00  7581 tandemx   
H2 1003001  6202 36605    2021 09 15 00 59 42 2021 09 20 00 00 42   120 1 1  0 0 0
H9
10 0 59474  29502.000000  0   -5793332.719   3724594.406    165651.624
10 0 59474  29622.000000  0   -5626140.707   3828114.531   1066563.704
10 0 59474  29742.000000  0   -5359391.619   3860909.529   1948693.398
10 0 59474  29862.000000  0   -4998989.172   3820702.753   2796502.163
10 0 59474  29982.000000  0   -4552520.040   3706624.022   3595058.681
10 0 59474  30102.000000  0   -4029090.839   3519250.994   4330308.787
10 0 59474  30222.000000  0   -3439136.997   3260619.852   4989325.728
10 0 59474  30342.000000  0   -2794208.874   2934207.458   5560538.322
10 0 59474  30462.000000  0   -2106738.769   2544883.527   6033931.867
10 0 59474  30582.000000  0   -1389795.880   2098834.882   6401219.435
10 0 59474  30702.000000  0    -656833.367   1603463.366   6655979.815
10 0 59474  30822.000000  0      78564.333   1067260.595   6793762.894
10 0 59474  30942.000000  0     802933.030    499660.953   6812162.946
10 0 59474  31062.000000  0    1503174.438    -89124.226   6710857.603
10 0 59474  31182.000000  0    2166791.953   -688289.557   6491613.741
10 0 59474  31302.000000  0    2782113.326  -1286633.472   6158259.171
10 0 59474  31422.000000  0    3338497.650  -1872766.768   5716620.855
10 0 59474  31542.000000  0    3826522.992  -2435329.976   5174428.466
10 0 59474  31662.000000  0    4238150.308  -2963214.209   4541184.744
10 0 59474  31782.000000  0    4566861.407  -3445783.257   3828004.561
10 0 59474  31902.000000  0    4807768.248  -3873091.572   3047423.106
10 0 59474  32022.000000  0    4957691.046  -4236092.690   2213175.505
10 0 59474  32142.000000  0    5015201.187  -4526832.630   1339951.648
10 0 59474  32262.000000  0    4980628.606  -4738624.323    443132.328
10 0 59474  32382.000000  0    4856033.671  -4866198.728   -461489.006
10 0 59474  32502.000000  0    4645143.950  -4905827.669  -1357993.058
10 0 59474  32622.000000  0    4353257.202  -4855415.295  -2230623.913
10 0 59474  32742.000000  0    3987113.169  -4714556.294  -3064073.060
10 0 59474  32862.000000  0    3554737.848  -4484559.553  -3843752.477
10 0 59474  32982.000000  0    3065265.354  -4168437.546  -4556051.113
10 0 59474  33102.000000  0    2528741.186  -3770861.441  -5188570.187
10 0 59474  33222.000000  0    1955912.119  -3298084.299  -5730331.274
10 0 59474  33342.000000  0    1358010.053  -2757836.600  -6171956.296
10 0 59474  33462.000000  0     746532.020  -2159195.647  -6505819.935
10 0 59474  33582.000000  0     133020.301  -1512429.387  -6726170.933
10 0 59474  33702.000000  0    -471151.830   -828819.139  -6829220.425
10 0 59474  33822.000000  0   -1054985.307   -120465.070  -6813199.103
10 0 59474  33942.000000  0   -1608050.662    599923.085  -6678383.750
10 0 59474  34062.000000  0   -2120669.991   1319247.992  -6427092.571
10 0 59474  34182.000000  0   -2584082.317   2024256.868  -6063649.666
10 0 59474  34302.000000  0   -2990591.889   2701779.978  -5594319.336
10 0 59474  34422.000000  0   -3333696.942   3338974.146  -5027209.576
10 0 59474  34542.000000  0   -3608197.542   3923566.465  -4372143.880
10 0 59474  34662.000000  0   -3810278.942   4444093.442  -3640500.871
10 0 59474  34782.000000  0   -3937567.132   4890129.816  -2845024.653
10 0 59474  34902.000000  0   -3989157.198   5252502.904  -1999609.667
10 0 59474  35022.000000  0   -3965614.106   5523488.027  -1119061.256
10 0 59474  35142.000000  0   -3868943.528   5696980.285   -218834.570
10 0 59474  35262.000000  0   -3702532.303   5768634.369    685242.280
10 0 59474  35382.000000  0   -3471061.678   5735971.115   1577254.080
10 0 59474  35502.000000  0   -3180392.719   5598447.513   2441489.223
10 0 59474  35622.000000  0   -2837426.617   5357485.021   3262726.478
10 0 59474  35742.000000  0   -2449945.696   5016457.664   4026509.231
10 0 59474  35862.000000  0   -2026439.124   4580642.065   4719404.041
10 0 59474  35982.000000  0   -1575917.822   4057129.854   5329238.552
10 0 59474  36102.000000  0   -1107722.181   3454704.569   5845314.657
10 0 59474  36222.000000  0    -631328.020   2783686.049   6258591.822
10 0 59474  36342.000000  0    -156155.269   2055746.831   6561839.312
10 0 59474  36462.000000  0     308617.139   1283705.366   6749756.805
10 0 59474  36582.000000  0     754228.016    481297.274   6819061.849
10 0 59474  36702.000000  0    1172498.007   -337068.971   6768542.711
10 0 59474  36822.000000  0    1555978.864  -1156569.913   6599079.386
10 0 59474  36942.000000  0    1898086.094  -1962235.233   6313629.341
10 0 59474  37062.000000  0    2193212.647  -2739221.071   5917179.984
10 0 59474  37182.000000  0    2436822.283  -3473085.384   5416666.799
10 0 59474  37302.000000  0    2625520.369  -4150059.463   4820857.141
10 0 59474  37422.000000  0    2757101.100  -4757310.881   4140202.580
10 0 59474  37542.000000  0    2830571.303  -5283193.793   3386659.336
10 0 59474  37662.000000  0    2846148.452  -5717480.098   2573479.863
10 0 59474  37782.000000  0    2805233.061  -6051566.737   1714978.052
10 0 59474  37902.000000  0    2710355.403  -6278651.515    826272.904
10 0 59474  38022.000000  0    2565099.846  -6393875.873    -76982.730
10 0 59474  38142.000000  0    2374007.059  -6394431.034   -978886.396
10 0 59474  38262.000000  0    2142455.549  -6279620.981  -1863576.546
10 0 59474  38382.000000  0    1876526.489  -6050882.883  -2715518.930
10 0 59474  38502.000000  0    1582854.919  -5711765.155  -3519787.006
10 0 59474  38622.000000  0    1268471.934  -5267860.158  -4262325.185
10 0 59474  38742.000000  0     940644.389  -4726700.242  -4930192.630
10 0 59474  38862.000000  0     606713.205  -4097618.199  -5511783.269
10 0 59474  38982.000000  0     273934.694  -3391576.009  -5997019.315
10 0 59474  39102.000000  0     -50671.708  -2620965.636  -6377515.162
10 0 59474  39222.000000  0    -360466.202  -1799387.022  -6646710.610
10 0 59474  39342.000000  0    -649319.479   -941407.518  -6799973.069
10 0 59474  39462.000000  0    -911729.278    -62306.182  -6834669.225
10 0 59474  39582.000000  0   -1142921.665    822193.251  -6750204.232
10 0 59474  39702.000000  0   -1338935.698   1696196.004  -6548030.362
10 0 59474  39822.000000  0   -1496689.727   2543914.529  -6231624.450
10 0 59474  39942.000000  0   -1614029.286   3349947.545  -5806436.186
10 0 59474  40062.000000  0   -1689755.913   4099557.533  -5279803.938
10 0 59474  40182.000000  0   -1723635.782   4778940.659  -4660839.819
10 0 59474  40302.000000  0   -1716388.704   5375486.057  -3960283.033
10 0 59474  40422.000000  0   -1669656.413   5878017.252  -3190322.308
10 0 59474  40542.000000  0   -1585950.461   6277010.654  -2364391.082
10 0 59474  40662.000000  0   -1468581.477   6564787.869  -1496937.577
10 0 59474  40782.000000  0   -1321570.317   6735674.676   -603171.734
10 0 59474  40902.000000  0   -1149543.439   6786123.128    301203.753
10 0 59474  41022.000000  0    -957614.245   6714794.151   1200276.322
10 0 59474  41142.000000  0    -751253.967   6522593.936   2078214.652
10 0 59474  41262.000000  0    -536155.096   6212662.028   2919556.859
10 0 59474  41382.000000  0    -318091.227   5790315.921   3709489.165
10 0 59474  41502.000000  0    -102777.568   5262954.412   4434111.459
10 0 59474  41622.000000  0     104265.379   4639919.588   5080688.544
10 0 59474  41742.000000  0     297842.832   3932317.092   5637871.933
10 0 59474  41862.000000  0     473205.964   3152811.412   6095894.751
10 0 59474  41982.000000  0     626159.536   2315390.646   6446739.392
10 0 59474  42102.000000  0     753155.004   1435109.703   6684271.449
10 0 59474  42222.000000  0     851367.607    527815.830   6804341.249
10 0 59474  42342.000000  0     918755.915   -390137.146   6804851.000
10 0 59474  42462.000000  0     954102.926  -1302182.528   6685790.356
10 0 59474  42582.000000  0     957038.015  -2191839.766   6449237.122
10 0 59474  42702.000000  0     928039.397  -3043012.505   6099323.922
10 0 59474  42822.000000  0     868416.566  -3840282.297   5642169.374
10 0 59474  42942.000000  0     780273.870  -4569189.564   5085775.067
10 0 59474  43062.000000  0     666456.580  -5216499.780   4439892.284
10 0 59474  43182.000000  0     530479.313  -5770452.332   3715857.570
10 0 59474  43302.000000  0     376437.593  -6220984.887   2926396.456
10 0 59474  43422.000000  0     208904.934  -6559926.510   2085399.481
10 0 59474  43542.000000  0      32817.491  -6781154.538   1207675.207
10 0 59474  43662.000000  0    -146650.245  -6880714.253    308684.788
10 0 59474  43782.000000  0    -324217.008  -6856894.840   -595740.130
10 0 59474  43902.000000  0    -494628.435  -6710257.750  -1489686.346
10 0 59474  44022.000000  0    -652789.614  -6443618.974  -2357447.147
10 0 59474  44142.000000  0    -793893.624  -6061987.850  -3183804.347
10 0 59474  44262.000000  0    -913543.128  -5572462.914  -3954299.602
10 0 59474  44382.000000  0   -1007861.576  -4984086.918  -4655488.330
10 0 59474  44502.000000  0   -1073591.362  -4307666.730  -5275170.111
10 0 59474  44622.000000  0   -1108177.133  -3555564.022  -5802593.572
10 0 59474  44742.000000  0   -1109832.352  -2741461.050  -6228633.354
10 0 59474  44862.000000  0   -1077588.230  -1880106.355  -6545936.976
10 0 59474  44982.000000  0   -1011324.483   -987046.221  -6749039.930
10 0 59474  45102.000000  0    -911781.900    -78346.778  -6834450.077
10 0 59474  45222.000000  0    -780555.672    829689.919  -6800700.443
10 0 59474  45342.000000  0    -620069.933   1720810.539  -6648371.032
10 0 59474  45462.000000  0    -433534.772   2579093.647  -6380079.939
10 0 59474  45582.000000  0    -224885.480   3389227.982  -6000444.636
10 0 59474  45702.000000  0       1296.064   4136783.423  -5516011.553
10 0 59474  45822.000000  0     239875.839   4808467.828  -4935153.357
10 0 59474  45942.000000  0     485276.203   5392367.776  -4267936.317
99
